NORAD_CAT_ID,OBJECT_NAME,OBJECT_TYPE,EPOCH,MEAN_MOTION,ECCENTRICITY,INCLINATION,RA_OF_ASC_NODE,ARG_OF_PERICENTER,MEAN_ANOMALY,BSTAR,MEAN_MOTION_DOT,MEAN_MOTION_DDOT,TLE_LINE0,TLE_LINE1,TLE_LINE2,SEMIMAJOR_AXIS,PERIOD,APOGEE,PERIGEE,DECAYED
52292.0,STARLINK-3753,PAYLOAD,2024-03-25 08:24:40,15.08846331,0.0001276,53.2166,65.9093,102.0931,258.0204,0.00046698,7.153e-05,0.0,0 STARLINK-3753,1 52292U 22041AH  24085.35047400  .00007153  00000-0  46698-3 0  9993,2 52292  53.2166  65.9093 0001276 102.0931 258.0204 15.08846331106668,6917.861,95.437,540.609,538.843,0.0
52292.0,STARLINK-3753,PAYLOAD,2024-03-26 05:04:43,15.08826034,0.0001156,53.2176,62.0429,102.0626,258.0495,0.00045778,7.002e-05,0.0,0 STARLINK-3753,1 52292U 22041AH  24086.21160894  .00007002  00000-0  45778-3 0  9993,2 52292  53.2176  62.0429 0001156 102.0626 258.0495 15.08826034108019,6917.923,95.438,540.588,538.988,0.0
52292.0,STARLINK-3753,PAYLOAD,2024-03-26 08:15:29,15.08828674,0.0001145,53.217,61.4478,102.789,257.3231,0.00062443,9.661e-05,0.0,0 STARLINK-3753,1 52292U 22041AH  24086.34409063  .00009661  00000-0  62443-3 0  9992,2 52292  53.2170  61.4478 0001145 102.7890 257.3231 15.08828674106816,6917.915,95.438,540.572,538.988,0.0
52292.0,STARLINK-3753,PAYLOAD,2024-03-27 04:55:29,15.08865519,0.0001002,53.217,57.5849,108.5933,251.5169,0.0011847,0.0001863,0.0,0 STARLINK-3753,1 52292U 22041AH  24087.20520397  .00018630  00000-0  11847-2 0  9999,2 52292  53.2170  57.5849 0001002 108.5933 251.5169 15.08865519108163,6917.802,95.436,540.361,538.974,0.0
52292.0,STARLINK-3753,PAYLOAD,2024-03-27 14:27:47,15.08866976,8.69e-05,53.2176,55.7993,103.8824,256.2265,0.00071794,0.00011165,0.0,0 STARLINK-3753,1 52292U 22041AH  24087.60263765  .00011165  00000-0  71794-3 0  9990,2 52292  53.2176  55.7993 0000869 103.8824 256.2265 15.08866976107005,6917.798,95.436,540.264,539.062,0.0
52292.0,STARLINK-3753,PAYLOAD,2024-03-27 22:24:43,15.08858219,0.0002432,53.2182,54.3144,114.6349,245.4896,-1.9773e-05,-6.03e-06,0.0,0 STARLINK-3753,1 52292U 22041AH  24087.93383951 -.00000603  00000-0 -19773-4 0  9993,2 52292  53.2182  54.3144 0002432 114.6349 245.4896 15.08858219107051,6917.825,95.436,541.372,538.007,0.0
52292.0,STARLINK-3753,PAYLOAD,2024-03-28 04:46:16,15.08848649,0.00012,53.2177,53.1256,96.9875,263.1254,0.0013,0.00020467,0.0,0 STARLINK-3753,1 52292U 22041AH  24088.19880052  .00020467  00000-0  13000-2 0  9999,2 52292  53.2177  53.1256 0001200  96.9875 263.1254 15.08848649108315,6917.854,95.437,540.549,538.889,0.0
52292.0,STARLINK-3753,PAYLOAD,2024-03-28 14:18:35,15.08847785,0.0001217,53.2191,51.34,86.0569,274.0563,0.00059413,9.182e-05,0.0,0 STARLINK-3753,1 52292U 22041AH  24088.59624047  .00009182  00000-0  59413-3 0  9993,2 52292  53.2191  51.3400 0001217  86.0569 274.0563 15.08847785107155,6917.857,95.437,540.563,538.88,0.0
52292.0,STARLINK-3753,PAYLOAD,2024-03-28 22:15:31,15.08839184,0.000181,53.2184,49.855,92.6984,267.4215,0.00034052,5.135e-05,0.0,0 STARLINK-3753,1 52292U 22041AH  24088.92744431  .00005135  00000-0  34052-3 0  9996,2 52292  53.2184  49.8550 0001810  92.6984 267.4215 15.08839184107208,6917.883,95.438,541.0,538.496,0.0
52292.0,STARLINK-3753,PAYLOAD,2024-03-29 04:37:03,15.08841904,0.0001368,53.2189,48.6646,94.2283,265.8865,0.00022591,3.309e-05,0.0,0 STARLINK-3753,1 52292U 22041AH  24089.19240291  .00003309  00000-0  22591-3 0  9997,2 52292  53.2189  48.6646 0001368  94.2283 265.8865 15.08841904108469,6917.875,95.437,540.686,538.793,0.0
52292.0,STARLINK-3753,PAYLOAD,2024-03-29 14:09:22,15.0884428,0.0001644,53.2197,46.8788,81.3041,278.8137,0.00053572,8.249e-05,0.0,0 STARLINK-3753,1 52292U 22041AH  24089.58984454  .00008249  00000-0  53572-3 0  9997,2 52292  53.2197  46.8788 0001644  81.3041 278.8137 15.08844280107309,6917.867,95.437,540.87,538.595,0.0
52292.0,STARLINK-3753,PAYLOAD,2024-03-29 20:30:55,15.08843259,0.0001628,53.2173,45.691,83.4112,276.7065,0.000412,6.276e-05,0.0,0 STARLINK-3753,1 52292U 22041AH  24089.85480464  .00006276  00000-0  41200-3 0  9992,2 52292  53.2173  45.6910 0001628  83.4112 276.7065 15.08843259107347,6917.87,95.437,540.862,538.609,0.0
52292.0,STARLINK-3753,PAYLOAD,2024-03-30 06:03:13,15.08849749,0.0001397,53.2191,43.9081,82.8054,277.3097,0.00037118,5.626e-05,0.0,0 STARLINK-3753,1 52292U 22041AH  24090.25224149  .00005626  00000-0  37118-3 0  9995,2 52292  53.2191  43.9081 0001397  82.8054 277.3097 15.08849749108622,6917.851,95.437,540.682,538.749,0.0
52292.0,STARLINK-3753,PAYLOAD,2024-03-30 14:00:09,15.088398,0.0001453,53.2185,42.4205,93.2532,266.8626,0.0001304,1.788e-05,0.0,0 STARLINK-3753,1 52292U 22041AH  24090.58344473  .00001788  00000-0  13040-3 0  9997,2 52292  53.2185  42.4205 0001453  93.2532 266.8626 15.08839800107455,6917.881,95.438,540.751,538.741,0.0
52292.0,STARLINK-3753,PAYLOAD,2024-03-31 13:50:56,15.08842121,0.0001406,53.2184,37.9579,93.5361,266.5792,0.00016162,2.285e-05,0.0,0 STARLINK-3753,1 52292U 22041AH  24091.57704530  .00002285  00000-0  16162-3 0  9992,2 52292  53.2184  37.9579 0001406  93.5361 266.5792 15.08842121107606,6917.874,95.437,540.712,538.766,0.0
52292.0,STARLINK-3753,PAYLOAD,2024-03-31 20:12:29,15.08839688,0.0002514,53.2189,36.772,84.844,275.2839,0.00015977,2.255e-05,0.0,0 STARLINK-3753,1 52292U 22041AH  24091.84201195  .00002255  00000-0  15977-3 0  9991,2 52292  53.2189  36.7720 0002514  84.8440 275.2839 15.08839688108860,6917.881,95.438,541.485,538.007,0.0
52292.0,STARLINK-3753,PAYLOAD,2024-04-01 02:34:02,15.08837354,0.0001411,53.2191,35.5826,85.0581,275.0572,0.00035517,5.369e-05,0.0,0 STARLINK-3753,1 52292U 22041AH  24092.10697792  .00005369  00000-0  35517-3 0  9994,2 52292  53.2191  35.5826 0001411  85.0581 275.0572 15.08837354108906,6917.888,95.438,540.73,538.777,0.0
52292.0,STARLINK-3753,PAYLOAD,2024-04-02 05:35:35,15.08877247,0.0001574,53.2177,30.525,92.0719,268.0454,0.0013062,0.00020582,0.0,0 STARLINK-3753,1 52292U 22041AH  24093.23305234  .00020582  00000-0  13062-2 0  9990,2 52292  53.2177  30.5250 0001574  92.0719 268.0454 15.08877247109072,6917.767,95.435,540.72,538.543,0.0
52292.0,STARLINK-3753,PAYLOAD,2024-04-03 05:26:21,15.08864232,0.0001415,53.2188,26.0637,104.8872,255.2277,0.00045329,6.938e-05,0.0,0 STARLINK-3753,1 52292U 22041AH  24094.22664297  .00006938  00000-0  45329-3 0  9998,2 52292  53.2188  26.0637 0001415 104.8872 255.2277 15.08864232109227,6917.806,95.436,540.65,538.692,0.0
52292.0,STARLINK-3753,PAYLOAD,2024-04-04 05:17:09,15.08843721,0.0001216,53.2182,21.6054,85.4907,274.6224,0.0003275,4.929e-05,0.0,0 STARLINK-3753,1 52292U 22041AH  24095.22024532  .00004929  00000-0  32750-3 0  9993,2 52292  53.2182  21.6054 0001216  85.4907 274.6224 15.08843721109370,6917.869,95.437,540.575,538.893,0.0
52292.0,STARLINK-3753,PAYLOAD,2024-04-04 11:38:41,15.08842394,0.0001025,53.2171,20.4154,77.3336,282.7771,0.00015766,2.222e-05,0.0,0 STARLINK-3753,1 52292U 22041AH  24095.48520625  .00002222  00000-0  15766-3 0  9997,2 52292  53.2171  20.4154 0001025  77.3336 282.7771 15.08842394108191,6917.873,95.437,540.447,539.029,0.0
52292.0,STARLINK-3753,PAYLOAD,2024-04-04 19:35:37,15.08842176,0.0001118,53.2177,18.9295,85.9028,274.2092,4.4556e-05,4.21e-06,0.0,0 STARLINK-3753,1 52292U 22041AH  24095.81640632  .00000421  00000-0  44556-4 0  9994,2 52292  53.2177  18.9295 0001118  85.9028 274.2092 15.08842176108247,6917.874,95.437,540.512,538.965,0.0
52292.0,STARLINK-3753,PAYLOAD,2024-04-05 11:29:28,15.08847401,0.0001119,53.2183,15.9566,92.4645,267.6475,0.00030445,4.562e-05,0.0,0 STARLINK-3753,1 52292U 22041AH  24096.47880241  .00004562  00000-0  30445-3 0  9990,2 52292  53.2183  15.9566 0001119  92.4645 267.6475 15.08847401109564,6917.858,95.437,540.497,538.949,0.0
52292.0,STARLINK-3753,PAYLOAD,2024-04-06 04:58:43,15.08841807,0.0001509,53.2202,12.6868,87.109,273.0075,7.3317e-05,8.79e-06,0.0,0 STARLINK-3753,1 52292U 22041AH  24097.20744654  .00000879  00000-0  73317-4 0  9992,2 52292  53.2202  12.6868 0001509  87.1090 273.0075 15.08841807109676,6917.875,95.437,540.784,538.696,0.0
52292.0,STARLINK-3753,PAYLOAD,2024-04-06 11:20:16,15.08836194,0.0001429,53.2192,11.4952,86.8254,273.2901,2.9645e-05,1.84e-06,0.0,0 STARLINK-3753,1 52292U 22041AH  24097.47241015  .00000184  00000-0  29645-4 0  9998,2 52292  53.2192  11.4952 0001429  86.8254 273.2901 15.08836194108496,6917.892,95.438,540.746,538.768,0.0
52292.0,STARLINK-3753,PAYLOAD,2024-04-06 22:27:58,15.08837688,0.0001466,53.2195,9.4143,92.8978,267.2182,3.7994e-05,3.17e-06,0.0,0 STARLINK-3753,1 52292U 22041AH  24097.93609085  .00000317  00000-0  37994-4 0  9998,2 52292  53.2195   9.4143 0001466  92.8978 267.2182 15.08837688108560,6917.887,95.438,540.767,538.738,0.0
52292.0,STARLINK-3753,PAYLOAD,2024-04-07 11:11:03,15.08838816,0.0001327,53.2191,7.0348,88.4684,271.6461,5.9887e-06,-1.93e-06,0.0,0 STARLINK-3753,1 52292U 22041AH  24098.46601123 -.00000193  00000-0  59887-5 0  9991,2 52292  53.2191   7.0348 0001327  88.4684 271.6461 15.08838816108640,6917.884,95.438,540.667,538.831,0.0
52292.0,STARLINK-3753,PAYLOAD,2024-04-07 22:18:45,15.08835153,0.0001404,53.2199,4.9527,89.0456,271.0697,0.00012747,1.741e-05,0.0,0 STARLINK-3753,1 52292U 22041AH  24098.92969589  .00001741  00000-0  12747-3 0  9996,2 52292  53.2199   4.9527 0001404  89.0456 271.0697 15.08835153108717,6917.895,95.438,540.731,538.789,0.0
52292.0,STARLINK-3753,PAYLOAD,2024-04-08 03:04:55,15.08837899,0.0001253,53.218,4.063,94.3147,265.7988,5.6505e-05,6.11e-06,0.0,0 STARLINK-3753,1 52292U 22041AH  24099.12841460  .00000611  00000-0  56505-4 0  9992,2 52292  53.2180   4.0630 0001253  94.3147 265.7988 15.08837899109961,6917.887,95.438,540.619,538.885,0.0
52292.0,STARLINK-3753,PAYLOAD,2024-04-08 11:01:51,15.08833415,0.0001229,53.2179,2.5754,97.2571,262.8561,3.2045e-05,2.22e-06,0.0,0 STARLINK-3753,1 52292U 22041AH  24099.45961842  .00000222  00000-0  32045-4 0  9996,2 52292  53.2179   2.5754 0001229  97.2571 262.8561 15.08833415108790,6917.901,95.438,540.616,538.915,0.0
